STARLINK-4718           
1 53773U 22111A   25331.12859162  .00000099  00000+0  24343-4 0  9997
2 53773  53.2206  24.4604 0001297 100.6930 259.4208 15.08832445178368
STARLINK-4719           
1 53774U 22111B   25331.19113326  .00000384  00000+0  42181-4 0  9997
2 53774  53.2180  24.1358 0001068  77.4249 282.6862 15.08845782178231
STARLINK-4722           
1 53775U 22111C   25331.28778649 -.00000235  00000+0  33473-5 0  9994
2 53775  53.2173  14.0527 0001111  85.4502 274.6618 15.08836792178231
STARLINK-4664           
1 53777U 22111E   25331.28042169  .00002026  00000+0  14537-3 0  9994
2 53777  53.2157  14.0072 0001156  94.7439 265.3685 15.08835258178238
STARLINK-4709           
1 53778U 22111F   25331.30750560 -.00001461  00000+0 -73750-4 0  9996
2 53778  53.2204  18.4608 0001290  99.5653 260.5485 15.08841451178175
STARLINK-4706           
1 53779U 22111G   25331.27673270 -.00000058  00000+0  14439-4 0  9994
2 53779  53.2169  13.9840 0001324  96.7661 263.3481 15.08827736178234
STARLINK-4678           
1 53780U 22111H   25331.28410471 -.00001015  00000+0 -45726-4 0  9997
2 53780  53.2170  14.0311 0001210  94.2491 265.8640 15.08831658178233
STARLINK-4462           
1 53781U 22111J   25331.26567490 -.00000729  00000+0 -27703-4 0  9996
2 53781  53.2162  13.9177 0001425  96.0528 264.0626 15.08841148178232
STARLINK-4679           
1 53782U 22111K   25331.27304708 -.00000008  00000+0  17598-4 0  9999
2 53782  53.2172  13.9617 0001348  93.7269 266.3878 15.08837054178238
STARLINK-4536           
1 53783U 22111L   25331.12582778  .00000427  00000+0  44902-4 0  9992
2 53783  53.2180  14.4687 0001303  88.6118 271.5023 15.08839020178211
STARLINK-4687           
1 53784U 22111M   25331.26936452  .00000102  00000+0  24519-4 0  9992
2 53784  53.2167  13.9400 0001351  94.4784 265.6362 15.08834934178232
STARLINK-4743           
1 53787U 22111Q   25331.31717863 -.00000033  00000+0  15984-4 0  9994
2 53787  53.2182  13.5293 0001143  83.4178 276.6944 15.08839681178245
STARLINK-4666           
1 53789U 22111S   25331.30612463  .00003808  00000+0  25723-3 0  9998
2 53789  53.2177  13.4612 0001454  93.8422 266.2737 15.08837805178237
STARLINK-4734           
1 53790U 22111T   25331.12214318 -.00000589  00000+0 -18910-4 0  9993
2 53790  53.2184  14.4440 0001361 100.9052 259.2094 15.08839002178210
STARLINK-4739           
1 53792U 22111V   25330.43868064 -.00000599  00000+0 -19545-4 0  9997
2 53792  53.2198  17.9839 0001294  97.6427 262.4712 15.08833498178092
STARLINK-4728           
1 53793U 22111W   25331.31349618  .00000054  00000+0  21506-4 0  9999
2 53793  53.2200  13.5057 0001437  93.3130 266.8026 15.08838741178232
