[{"OBJECT_NAME":"STARLINK-4718","OBJECT_ID":"2022-111A","EPOCH":"2025-11-27T03:05:10.315968","MEAN_MOTION":15.08832445,"ECCENTRICITY":0.0001297,"INCLINATION":53.2206,"RA_OF_ASC_NODE":24.4604,"ARG_OF_PERICENTER":100.693,"MEAN_ANOMALY":259.4208,"EPHEMERIS_TYPE":0,"CLASSIFICATION_TYPE":"U","NORAD_CAT_ID":53773,"ELEMENT_SET_NO":999,"REV_AT_EPOCH":17836,"BSTAR":2.4342508e-5,"MEAN_MOTION_DOT":9.9e-7,"MEAN_MOTION_DDOT":0},{"OBJECT_NAME":"STARLINK-4719","OBJECT_ID":"2022-111B","EPOCH":"2025-11-27T04:35:13.913664","MEAN_MOTION":15.08845782,"ECCENTRICITY":0.00010683,"INCLINATION":53.218,"RA_OF_ASC_NODE":24.1358,"ARG_OF_PERICENTER":77.4249,"MEAN_ANOMALY":282.6862,"EPHEMERIS_TYPE":0,"CLASSIFICATION_TYPE":"U","NORAD_CAT_ID":53774,"ELEMENT_SET_NO":999,"REV_AT_EPOCH":17823,"BSTAR":4.218143e-5,"MEAN_MOTION_DOT":3.84e-6,"MEAN_MOTION_DDOT":0},{"OBJECT_NAME":"STARLINK-4722","OBJECT_ID":"2022-111C","EPOCH":"2025-11-27T06:54:24.752736","MEAN_MOTION":15.08836792,"ECCENTRICITY":0.00011116,"INCLINATION":53.2173,"RA_OF_ASC_NODE":14.0527,"ARG_OF_PERICENTER":85.4502,"MEAN_ANOMALY":274.6618,"EPHEMERIS_TYPE":0,"CLASSIFICATION_TYPE":"U","NORAD_CAT_ID":53775,"ELEMENT_SET_NO":999,"REV_AT_EPOCH":17823,"BSTAR":3.347282e-6,"MEAN_MOTION_DOT":-2.35e-6,"MEAN_MOTION_DDOT":0},{"OBJECT_NAME":"STARLINK-4664","OBJECT_ID":"2022-111E","EPOCH":"2025-11-27T06:43:48.434016","MEAN_MOTION":15.08835258,"ECCENTRICITY":0.00011565,"INCLINATION":53.2157,"RA_OF_ASC_NODE":14.0072,"ARG_OF_PERICENTER":94.7439,"MEAN_ANOMALY":265.3685,"EPHEMERIS_TYPE":0,"CLASSIFICATION_TYPE":"U","NORAD_CAT_ID":53777,"ELEMENT_SET_NO":999,"REV_AT_EPOCH":17823,"BSTAR":0.00014537196,"MEAN_MOTION_DOT":2.026e-5,"MEAN_MOTION_DDOT":0},{"OBJECT_NAME":"STARLINK-4709","OBJECT_ID":"2022-111F","EPOCH":"2025-11-27T07:22:48.483840","MEAN_MOTION":15.08841451,"ECCENTRICITY":0.00012906,"INCLINATION":53.2204,"RA_OF_ASC_NODE":18.4608,"ARG_OF_PERICENTER":99.5653,"MEAN_ANOMALY":260.5485,"EPHEMERIS_TYPE":0,"CLASSIFICATION_TYPE":"U","NORAD_CAT_ID":53778,"ELEMENT_SET_NO":999,"REV_AT_EPOCH":17817,"BSTAR":-7.3749837e-5,"MEAN_MOTION_DOT":-1.461e-5,"MEAN_MOTION_DDOT":0},{"OBJECT_NAME":"STARLINK-4706","OBJECT_ID":"2022-111G","EPOCH":"2025-11-27T06:38:29.705280","MEAN_MOTION":15.08827736,"ECCENTRICITY":0.00013248,"INCLINATION":53.2169,"RA_OF_ASC_NODE":13.984,"ARG_OF_PERICENTER":96.7661,"MEAN_ANOMALY":263.3481,"EPHEMERIS_TYPE":0,"CLASSIFICATION_TYPE":"U","NORAD_CAT_ID":53779,"ELEMENT_SET_NO":999,"REV_AT_EPOCH":17823,"BSTAR":1.4439118e-5,"MEAN_MOTION_DOT":-5.8e-7,"MEAN_MOTION_DDOT":0},{"OBJECT_NAME":"STARLINK-4678","OBJECT_ID":"2022-111H","EPOCH":"2025-11-27T06:49:06.646944","MEAN_MOTION":15.08831658,"ECCENTRICITY":0.00012106,"INCLINATION":53.217,"RA_OF_ASC_NODE":14.0311,"ARG_OF_PERICENTER":94.2491,"MEAN_ANOMALY":265.864,"EPHEMERIS_TYPE":0,"CLASSIFICATION_TYPE":"U","NORAD_CAT_ID":53780,"ELEMENT_SET_NO":999,"REV_AT_EPOCH":17823,"BSTAR":-4.5725878e-5,"MEAN_MOTION_DOT":-1.015e-5,"MEAN_MOTION_DDOT":0},{"OBJECT_NAME":"STARLINK-4462","OBJECT_ID":"2022-111J","EPOCH":"2025-11-27T06:22:34.311360","MEAN_MOTION":15.08841148,"ECCENTRICITY":0.00014251,"INCLINATION":53.2162,"RA_OF_ASC_NODE":13.9177,"ARG_OF_PERICENTER":96.0528,"MEAN_ANOMALY":264.0626,"EPHEMERIS_TYPE":0,"CLASSIFICATION_TYPE":"U","NORAD_CAT_ID":53781,"ELEMENT_SET_NO":999,"REV_AT_EPOCH":17823,"BSTAR":-2.7703477e-5,"MEAN_MOTION_DOT":-7.29e-6,"MEAN_MOTION_DDOT":0},{"OBJECT_NAME":"STARLINK-4679","OBJECT_ID":"2022-111K","EPOCH":"2025-11-27T06:33:11.267712","MEAN_MOTION":15.08837054,"ECCENTRICITY":0.00013481,"INCLINATION":53.2172,"RA_OF_ASC_NODE":13.9617,"ARG_OF_PERICENTER":93.7269,"MEAN_ANOMALY":266.3878,"EPHEMERIS_TYPE":0,"CLASSIFICATION_TYPE":"U","NORAD_CAT_ID":53782,"ELEMENT_SET_NO":999,"REV_AT_EPOCH":17823,"BSTAR":1.7598484e-5,"MEAN_MOTION_DOT":-8.0e-8,"MEAN_MOTION_DDOT":0},{"OBJECT_NAME":"STARLINK-4536","OBJECT_ID":"2022-111L","EPOCH":"2025-11-27T03:01:11.520192","MEAN_MOTION":15.0883902,"ECCENTRICITY":0.00013035,"INCLINATION":53.218,"RA_OF_ASC_NODE":14.4687,"ARG_OF_PERICENTER":88.6118,"MEAN_ANOMALY":271.5023,"EPHEMERIS_TYPE":0,"CLASSIFICATION_TYPE":"U","NORAD_CAT_ID":53783,"ELEMENT_SET_NO":999,"REV_AT_EPOCH":17821,"BSTAR":4.490221e-5,"MEAN_MOTION_DOT":4.27e-6,"MEAN_MOTION_DDOT":0},{"OBJECT_NAME":"STARLINK-4687","OBJECT_ID":"2022-111M","EPOCH":"2025-11-27T06:27:53.094528","MEAN_MOTION":15.08834934,"ECCENTRICITY":0.0001351,"INCLINATION":53.2167,"RA_OF_ASC_NODE":13.94,"ARG_OF_PERICENTER":94.4784,"MEAN_ANOMALY":265.6362,"EPHEMERIS_TYPE":0,"CLASSIFICATION_TYPE":"U","NORAD_CAT_ID":53784,"ELEMENT_SET_NO":999,"REV_AT_EPOCH":17823,"BSTAR":2.451915e-5,"MEAN_MOTION_DOT":1.02e-6,"MEAN_MOTION_DDOT":0},{"OBJECT_NAME":"STARLINK-4743","OBJECT_ID":"2022-111Q","EPOCH":"2025-11-27T07:36:44.233632","MEAN_MOTION":15.08839681,"ECCENTRICITY":0.00011436,"INCLINATION":53.2182,"RA_OF_ASC_NODE":13.5293,"ARG_OF_PERICENTER":83.4178,"MEAN_ANOMALY":276.6944,"EPHEMERIS_TYPE":0,"CLASSIFICATION_TYPE":"U","NORAD_CAT_ID":53787,"ELEMENT_SET_NO":999,"REV_AT_EPOCH":17824,"BSTAR":1.5983859e-5,"MEAN_MOTION_DOT":-3.3e-7,"MEAN_MOTION_DDOT":0},{"OBJECT_NAME":"STARLINK-4666","OBJECT_ID":"2022-111S","EPOCH":"2025-11-27T07:20:49.168032","MEAN_MOTION":15.08837805,"ECCENTRICITY":0.00014548,"INCLINATION":53.2177,"RA_OF_ASC_NODE":13.4612,"ARG_OF_PERICENTER":93.8422,"MEAN_ANOMALY":266.2737,"EPHEMERIS_TYPE":0,"CLASSIFICATION_TYPE":"U","NORAD_CAT_ID":53789,"ELEMENT_SET_NO":999,"REV_AT_EPOCH":17823,"BSTAR":0.00025723285,"MEAN_MOTION_DOT":3.808e-5,"MEAN_MOTION_DDOT":0},{"OBJECT_NAME":"STARLINK-4734","OBJECT_ID":"2022-111T","EPOCH":"2025-11-27T02:55:53.170752","MEAN_MOTION":15.08839002,"ECCENTRICITY":0.00013613,"INCLINATION":53.2184,"RA_OF_ASC_NODE":14.444,"ARG_OF_PERICENTER":100.9052,"MEAN_ANOMALY":259.2094,"EPHEMERIS_TYPE":0,"CLASSIFICATION_TYPE":"U","NORAD_CAT_ID":53790,"ELEMENT_SET_NO":999,"REV_AT_EPOCH":17821,"BSTAR":-1.8910165e-5,"MEAN_MOTION_DOT":-5.89e-6,"MEAN_MOTION_DDOT":0},{"OBJECT_NAME":"STARLINK-4739","OBJECT_ID":"2022-111V","EPOCH":"2025-11-26T10:31:42.007296","MEAN_MOTION":15.08833498,"ECCENTRICITY":0.00012942,"INCLINATION":53.2198,"RA_OF_ASC_NODE":17.9839,"ARG_OF_PERICENTER":97.6427,"MEAN_ANOMALY":262.4712,"EPHEMERIS_TYPE":0,"CLASSIFICATION_TYPE":"U","NORAD_CAT_ID":53792,"ELEMENT_SET_NO":999,"REV_AT_EPOCH":17809,"BSTAR":-1.9544994e-5,"MEAN_MOTION_DOT":-5.99e-6,"MEAN_MOTION_DDOT":0},{"OBJECT_NAME":"STARLINK-4728","OBJECT_ID":"2022-111W","EPOCH":"2025-11-27T07:31:26.069952","MEAN_MOTION":15.08838741,"ECCENTRICITY":0.0001437,"INCLINATION":53.22,"RA_OF_ASC_NODE":13.5057,"ARG_OF_PERICENTER":93.313,"MEAN_ANOMALY":266.8026,"EPHEMERIS_TYPE":0,"CLASSIFICATION_TYPE":"U","NORAD_CAT_ID":53793,"ELEMENT_SET_NO":999,"REV_AT_EPOCH":17823,"BSTAR":2.1506447e-5,"MEAN_MOTION_DOT":5.4e-7,"MEAN_MOTION_DDOT":0}]
